ONEWEB-0205             
1 48226U 21031S   24200.68096366  .00000047  00000+0  92238-4 0  9999
2 48226  87.8938  68.6544 0001615  85.6987 274.4327 13.14504139156503
ONEWEB-0206             
1 48227U 21031T   24200.65400367 -.00000097  00000+0 -29665-3 0  9997
2 48227  87.8937  68.6481 0001678  87.7407 272.3914 13.14503253156451
ONEWEB-0182             
1 48228U 21031U   24200.72536627 -.00000016  00000+0 -77218-4 0  9994
2 48228  87.8942  68.6625 0001922  83.2176 276.9173 13.14502630156673
ONEWEB-0186             
1 48229U 21031V   24201.19317102 -.00000115  00000+0 -34455-3 0  9997
2 48229  87.8940  68.5327 0001705  79.5483 280.5838 13.14504147156694
ONEWEB-0181             
1 48230U 21031W   24200.71426610  .00000158  00000+0  39252-3 0  9996
2 48230  87.8943  68.6984 0001637  77.1391 282.9921 13.14502763156472
ONEWEB-0188             
1 48231U 21031X   24201.36125215 -.00000128  00000+0 -37985-3 0  9996
2 48231  87.8939  68.5642 0001723  83.2577 276.8749 13.14505184156467
ONEWEB-0220             
1 48232U 21031Y   24200.71584977  .00000136  00000+0  33200-3 0  9992
2 48232  87.8935  68.6560 0001564  91.2670 268.8639 13.14503103156648
ONEWEB-0165             
1 48233U 21031Z   24201.12498116 -.00000127  00000+0 -37699-3 0  9996
2 48233  87.8939  68.5930 0001588  82.9288 277.2022 13.14502470156658
